[
  {
    "OBJECT_NAME": "MOZHAYETS 4 (RS-22)",
    "OBJECT_ID": "2003-042A",
    "EPOCH": "2025-05-06T05:38:47.035104",
    "MEAN_MOTION": 14.72262516,
    "ECCENTRICITY": 0.001264,
    "INCLINATION": 98.3257,
    "RA_OF_ASC_NODE": 294.8644,
    "ARG_OF_PERICENTER": 116.7041,
    "MEAN_ANOMALY": 56.5166,
    "EPHEMERIS_TYPE": 0,
    "CLASSIFICATION_TYPE": "U",
    "NORAD_CAT_ID": 27939,
    "ELEMENT_SET_NO": 999,
    "REV_AT_EPOCH": 15577,
    "BSTAR": 0.00030811,
    "MEAN_MOTION_DOT": 1.895e-05,
    "MEAN_MOTION_DDOT": 0
  },
  {
    "OBJECT_NAME": "CUBESAT XI-V",
    "OBJECT_ID": "2005-043F",
    "EPOCH": "2025-05-05T19:49:42.703680",
    "MEAN_MOTION": 14.70894096,
    "ECCENTRICITY": 0.0015544,
    "INCLINATION": 98.2448,
    "RA_OF_ASC_NODE": 269.7548,
    "ARG_OF_PERICENTER": 60.5624,
    "MEAN_ANOMALY": 299.7131,
    "EPHEMERIS_TYPE": 0,
    "CLASSIFICATION_TYPE": "U",
    "NORAD_CAT_ID": 28895,
    "ELEMENT_SET_NO": 999,
    "REV_AT_EPOCH": 4183,
    "BSTAR": 0.00041397,
    "MEAN_MOTION_DOT": 2.486e-05,
    "MEAN_MOTION_DDOT": 0
  },
  {
    "OBJECT_NAME": "CUTE-1.7+APD II (CO-65)",
    "OBJECT_ID": "2008-021C",
    "EPOCH": "2025-05-05T21:10:04.856160",
    "MEAN_MOTION": 15.04061017,
    "ECCENTRICITY": 0.0009178,
    "INCLINATION": 97.7811,
    "RA_OF_ASC_NODE": 96.8034,
    "ARG_OF_PERICENTER": 339.7183,
    "MEAN_ANOMALY": 20.3677,
    "EPHEMERIS_TYPE": 0,
    "CLASSIFICATION_TYPE": "U",
    "NORAD_CAT_ID": 32785,
    "ELEMENT_SET_NO": 999,
    "REV_AT_EPOCH": 92386,
    "BSTAR": 0.00053611,
    "MEAN_MOTION_DOT": 7.366e-05,
    "MEAN_MOTION_DDOT": 0
  },
  {
    "OBJECT_NAME": "SEEDS II (CO-66)",
    "OBJECT_ID": "2008-021J",
    "EPOCH": "2025-05-05T21:44:16.844064",
    "MEAN_MOTION": 15.17849588,
    "ECCENTRICITY": 0.0001652,
    "INCLINATION": 97.7263,
    "RA_OF_ASC_NODE": 105.2007,
    "ARG_OF_PERICENTER": 314.4163,
    "MEAN_ANOMALY": 45.6934,
    "EPHEMERIS_TYPE": 0,
    "CLASSIFICATION_TYPE": "U",
    "NORAD_CAT_ID": 32791,
    "ELEMENT_SET_NO": 999,
    "REV_AT_EPOCH": 92523,
    "BSTAR": 0.00082385,
    "MEAN_MOTION_DOT": 0.00016634,
    "MEAN_MOTION_DDOT": 0
  },
  {
    "OBJECT_NAME": "YUBILEINY (RS-30)",
    "OBJECT_ID": "2008-025A",
    "EPOCH": "2025-05-06T02:49:47.610624",
    "MEAN_MOTION": 12.43163666,
    "ECCENTRICITY": 0.0020501,
    "INCLINATION": 82.5025,
    "RA_OF_ASC_NODE": 248.6062,
    "ARG_OF_PERICENTER": 120.6495,
    "MEAN_ANOMALY": 239.661,
    "EPHEMERIS_TYPE": 0,
    "CLASSIFICATION_TYPE": "U",
    "NORAD_CAT_ID": 32953,
    "ELEMENT_SET_NO": 999,
    "REV_AT_EPOCH": 76925,
    "BSTAR": 0.00016743,
    "MEAN_MOTION_DOT": 3.3e-07,
    "MEAN_MOTION_DDOT": 0
  },
  {
    "OBJECT_NAME": "KKS-1 (KISEKI)",
    "OBJECT_ID": "2009-002H",
    "EPOCH": "2025-05-06T05:09:09.621216",
    "MEAN_MOTION": 14.81512477,
    "ECCENTRICITY": 0.0008528,
    "INCLINATION": 98.1217,
    "RA_OF_ASC_NODE": 37.8138,
    "ARG_OF_PERICENTER": 158.086,
    "MEAN_ANOMALY": 202.0718,
    "EPHEMERIS_TYPE": 0,
    "CLASSIFICATION_TYPE": "U",
    "NORAD_CAT_ID": 33499,
    "ELEMENT_SET_NO": 999,
    "REV_AT_EPOCH": 87633,
    "BSTAR": 0.00028092,
    "MEAN_MOTION_DOT": 2.149e-05,
    "MEAN_MOTION_DDOT": 0
  },
  {
    "OBJECT_NAME": "SWISSCUBE",
    "OBJECT_ID": "2009-051B",
    "EPOCH": "2025-05-06T04:31:42.835872",
    "MEAN_MOTION": 14.6125026,
    "ECCENTRICITY": 0.0008004,
    "INCLINATION": 98.4338,
    "RA_OF_ASC_NODE": 21.7752,
    "ARG_OF_PERICENTER": 45.8131,
    "MEAN_ANOMALY": 314.3726,
    "EPHEMERIS_TYPE": 0,
    "CLASSIFICATION_TYPE": "U",
    "NORAD_CAT_ID": 35932,
    "ELEMENT_SET_NO": 999,
    "REV_AT_EPOCH": 82973,
    "BSTAR": 0.00036091,
    "MEAN_MOTION_DOT": 1.731e-05,
    "MEAN_MOTION_DDOT": 0
  },
  {
    "OBJECT_NAME": "BEESAT-1",
    "OBJECT_ID": "2009-051C",
    "EPOCH": "2025-05-06T03:35:09.887136",
    "MEAN_MOTION": 14.60676375,
    "ECCENTRICITY": 0.0006591,
    "INCLINATION": 98.4269,
    "RA_OF_ASC_NODE": 22.1505,
    "ARG_OF_PERICENTER": 58.538,
    "MEAN_ANOMALY": 301.6463,
    "EPHEMERIS_TYPE": 0,
    "CLASSIFICATION_TYPE": "U",
    "NORAD_CAT_ID": 35933,
    "ELEMENT_SET_NO": 999,
    "REV_AT_EPOCH": 82982,
    "BSTAR": 0.00030271,
    "MEAN_MOTION_DOT": 1.426e-05,
    "MEAN_MOTION_DDOT": 0
  },
  {
    "OBJECT_NAME": "ITUPSAT1",
    "OBJECT_ID": "2009-051E",
    "EPOCH": "2025-05-06T04:57:30.862080",
    "MEAN_MOTION": 14.59479799,
    "ECCENTRICITY": 0.000889,
    "INCLINATION": 98.4364,
    "RA_OF_ASC_NODE": 21.7775,
    "ARG_OF_PERICENTER": 63.9472,
    "MEAN_ANOMALY": 296.2641,
    "EPHEMERIS_TYPE": 0,
    "CLASSIFICATION_TYPE": "U",
    "NORAD_CAT_ID": 35935,
    "ELEMENT_SET_NO": 999,
    "REV_AT_EPOCH": 82938,
    "BSTAR": 0.00030517,
    "MEAN_MOTION_DOT": 1.4e-05,
    "MEAN_MOTION_DDOT": 0
  },
  {
    "OBJECT_NAME": "XIWANG-1 (HOPE-1)",
    "OBJECT_ID": "2009-072B",
    "EPOCH": "2025-05-05T19:26:42.700416",
    "MEAN_MOTION": 13.16423964,
    "ECCENTRICITY": 0.0008189,
    "INCLINATION": 100.3465,
    "RA_OF_ASC_NODE": 82.3243,
    "ARG_OF_PERICENTER": 85.0584,
    "MEAN_ANOMALY": 275.1464,
    "EPHEMERIS_TYPE": 0,
    "CLASSIFICATION_TYPE": "U",
    "NORAD_CAT_ID": 36122,
    "ELEMENT_SET_NO": 999,
    "REV_AT_EPOCH": 73940,
    "BSTAR": 8.6485e-05,
    "MEAN_MOTION_DOT": -1.1e-07,
    "MEAN_MOTION_DDOT": 0
  },
  {
    "OBJECT_NAME": "O/OREOS (USA 219)",
    "OBJECT_ID": "2010-062C",
    "EPOCH": "2025-05-06T02:06:43.570656",
    "MEAN_MOTION": 14.91284564,
    "ECCENTRICITY": 0.0013545,
    "INCLINATION": 71.9708,
    "RA_OF_ASC_NODE": 280.706,
    "ARG_OF_PERICENTER": 127.5425,
    "MEAN_ANOMALY": 232.6977,
    "EPHEMERIS_TYPE": 0,
    "CLASSIFICATION_TYPE": "U",
    "NORAD_CAT_ID": 37224,
    "ELEMENT_SET_NO": 999,
    "REV_AT_EPOCH": 5590,
    "BSTAR": 0.00039359,
    "MEAN_MOTION_DOT": 3.868e-05,
    "MEAN_MOTION_DDOT": 0
  },
  {
    "OBJECT_NAME": "JUGNU",
    "OBJECT_ID": "2011-058B",
    "EPOCH": "2025-05-05T17:42:18.845568",
    "MEAN_MOTION": 14.13590718,
    "ECCENTRICITY": 0.0018535,
    "INCLINATION": 19.9609,
    "RA_OF_ASC_NODE": 263.4637,
    "ARG_OF_PERICENTER": 257.3331,
    "MEAN_ANOMALY": 132.4413,
    "EPHEMERIS_TYPE": 0,
    "CLASSIFICATION_TYPE": "U",
    "NORAD_CAT_ID": 37839,
    "ELEMENT_SET_NO": 999,
    "REV_AT_EPOCH": 70130,
    "BSTAR": 0.00015148,
    "MEAN_MOTION_DOT": 5.57e-06,
    "MEAN_MOTION_DDOT": 0
  },
  {
    "OBJECT_NAME": "SRMSAT",
    "OBJECT_ID": "2011-058D",
    "EPOCH": "2025-05-05T21:22:39.330336",
    "MEAN_MOTION": 14.11424283,
    "ECCENTRICITY": 0.0011743,
    "INCLINATION": 19.9735,
    "RA_OF_ASC_NODE": 4.4651,
    "ARG_OF_PERICENTER": 43.7963,
    "MEAN_ANOMALY": 50.3282,
    "EPHEMERIS_TYPE": 0,
    "CLASSIFICATION_TYPE": "U",
    "NORAD_CAT_ID": 37841,
    "ELEMENT_SET_NO": 999,
    "REV_AT_EPOCH": 70020,
    "BSTAR": 0.00013496,
    "MEAN_MOTION_DOT": 5.13e-06,
    "MEAN_MOTION_DDOT": 0
  },
  {
    "OBJECT_NAME": "STRAND-1",
    "OBJECT_ID": "2013-009E",
    "EPOCH": "2025-05-05T12:10:58.057824",
    "MEAN_MOTION": 14.36790542,
    "ECCENTRICITY": 0.0008993,
    "INCLINATION": 98.3829,
    "RA_OF_ASC_NODE": 311.1251,
    "ARG_OF_PERICENTER": 17.7298,
    "MEAN_ANOMALY": 342.4201,
    "EPHEMERIS_TYPE": 0,
    "CLASSIFICATION_TYPE": "U",
    "NORAD_CAT_ID": 39090,
    "ELEMENT_SET_NO": 999,
    "REV_AT_EPOCH": 63851,
    "BSTAR": 0.00019377,
    "MEAN_MOTION_DOT": 5.3e-06,
    "MEAN_MOTION_DDOT": 0
  }
]