MOZHAYETS 4 (RS-22)     
1 27939U 03042A   25126.23526661  .00001895  00000+0  30811-3 0  9994
2 27939  98.3257 294.8644 0012640 116.7041  56.5166 14.72262516155776
CUBESAT XI-V            
1 28895U 05043F   25125.82618870  .00002486  00000+0  41397-3 0  9995
2 28895  98.2448 269.7548 0015544  60.5624 299.7131 14.70894096 41838
CUTE-1.7+APD II (CO-65) 
1 32785U 08021C   25125.88200065  .00007366  00000+0  53611-3 0  9990
2 32785  97.7811  96.8034 0009178 339.7183  20.3677 15.04061017923867
SEEDS II (CO-66)        
1 32791U 08021J   25125.90575051  .00016634  00000+0  82385-3 0  9998
2 32791  97.7263 105.2007 0001652 314.4163  45.6934 15.17849588925237
YUBILEINY (RS-30)       
1 32953U 08025A   25126.11791216  .00000033  00000+0  16743-3 0  9990
2 32953  82.5025 248.6062 0020501 120.6495 239.6610 12.43163666769253
KKS-1 (KISEKI)          
1 33499U 09002H   25126.21469469  .00002149  00000+0  28092-3 0  9995
2 33499  98.1217  37.8138 0008528 158.0860 202.0718 14.81512477876336
SWISSCUBE               
1 35932U 09051B   25126.18869023  .00001731  00000+0  36091-3 0  9993
2 35932  98.4338  21.7752 0008004  45.8131 314.3726 14.61250260829739
BEESAT-1                
1 35933U 09051C   25126.14941999  .00001426  00000+0  30271-3 0  9998
2 35933  98.4269  22.1505 0006591  58.5380 301.6463 14.60676375829825
ITUPSAT1                
1 35935U 09051E   25126.20660720  .00001400  00000+0  30517-3 0  9992
2 35935  98.4364  21.7775 0008890  63.9472 296.2641 14.59479799829380
XIWANG-1 (HOPE-1)       
1 36122U 09072B   25125.81021644 -.00000011  00000+0  86485-4 0  9990
2 36122 100.3465  82.3243 0008189  85.0584 275.1464 13.16423964739404
O/OREOS (USA 219)       
1 37224U 10062C   25126.08800429  .00003868  00000+0  39359-3 0  9990
2 37224  71.9708 280.7060 0013545 127.5425 232.6977 14.91284564 55908
JUGNU                   
1 37839U 11058B   25125.73771812  .00000557  00000+0  15148-3 0  9994
2 37839  19.9609 263.4637 0018535 257.3331 132.4413 14.13590718701301
SRMSAT                  
1 37841U 11058D   25125.89073299  .00000513  00000+0  13496-3 0  9994
2 37841  19.9735   4.4651 0011743  43.7963  50.3282 14.11424283700206
STRAND-1                
1 39090U 13009E   25125.50761641  .00000530  00000+0  19377-3 0  9996
2 39090  98.3829 311.1251 0008993  17.7298 342.4201 14.36790542638519
